{"signature":{"source":"NASA/JPL Horizons API","version":"1.2"},"result":"*******************************************************************************
 Revised: January 26, 2022             Saturn                               699
 
 PHYSICAL DATA:
  Mass x10^26 (kg)      = 5.6834          Density (g/cm^3)       =  0.687+-.001
  Equat. radius (1 bar) = 60268+-4 km     Polar radius (km)      = 54364+-10
  Vol. Mean Radius (km) = 58232+-6        Flattening             =  0.09796
  Geometric Albedo      = 0.47            Rocky core mass (Mc/M) =  0.1027
  Sid. rot. period (III)= 10h 39m 22.4s   Sid. rot. rate (rad/s) =  0.000163785 
  Mean solar day, hrs   =~10.656         
  GM (km^3/s^2)         = 37931206.234    GM 1-sigma (km^3/s^2)  = +- 98
  Equ. grav, ge (m/s^2) = 10.44           Pol. grav, gp (m/s^2)  = 12.14+-0.01
  Vis. magnitude V(1,0) = -8.88          
  Vis. mag. (opposition)= +0.67           Obliquity to orbit     = 26.73 deg
  Sidereal orbit period = 29.447498 yr    Sidereal orbit period  = 10755.698 d
  Mean daily motion     = 0.0334979 deg/d Mean orbit velocity    =  9.68 km/s
  Atmos. temp. (1 bar)  = 134+-4 K        Escape speed, km/s    =  35.5          
  Aroche(ice)/Rp        =  2.71           Hill's sphere rad. Rp  = 1100
                                 Perihelion  Aphelion    Mean
  Solar Constant (W/m^2)         16.8        13.6        15.1
  Maximum Planetary IR (W/m^2)    4.7         4.5         4.6
  Minimum Planetary IR (W/m^2)    4.7         4.5         4.6
*******************************************************************************


*******************************************************************************
Ephemeris / API_USER Sat Sep 20 12:30:40 2025 Pasadena, USA      / Horizons
*******************************************************************************
Target body name: Saturn (699)                    {source: sat441l}
Center body name: Earth (399)                     {source: DE441}
Center-site name: BODY CENTER
*******************************************************************************
Start time      : A.D. 2025-Jan-01 00:00:00.0000 TDB
Stop  time      : A.D. 2026-Jan-01 00:00:00.0000 TDB
Step-size       : 60 minutes
*******************************************************************************
Center geodetic : 0.0, 0.0, 0.0                   {E-lon(deg),Lat(deg),Alt(km)}
Center cylindric: 0.0, 0.0, 0.0                   {E-lon(deg),Dxy(km),Dz(km)}
Center radii    : 6378.137, 6378.137, 6356.752 km {Equator_a, b, pole_c}
Output units    : KM-S
Calendar mode   : Mixed Julian/Gregorian
Output type     : GEOMETRIC cartesian states
Output format   : 3 (position, velocity, LT, range, range-rate)
EOP file        : eop.250919.p251216
EOP coverage    : DATA-BASED 1962-JAN-20 TO 2025-SEP-19. PREDICTS-> 2025-DEC-15
Reference frame : Ecliptic of J2000.0
*******************************************************************************
            JDTDB,            Calendar Date (TDB),                      X,                      Y,                      Z,                     VX,                     VY,                     VZ,                     LT,                     RG,                     RR,
**************************************************************************************************************************************************************************************************************************************************************************
$$SOE
2460875.500000000, A.D. 2025-Jul-19 00:00:00.0000,  1.359850646474840E+09,  3.673265630590384E+07, -5.507847172505713E+07, -2.611200733242853E+01, -3.433450270560223E+00, -1.715784240519769E-01,  4.541345865188148E+03,  1.361461239552891E+09, -2.616681142888227E+01,
2460875.541666667, A.D. 2025-Jul-19 01:00:00.0000,  1.359756659080283E+09,  3.672026238971627E+07, -5.507908939954916E+07, -2.610320959486249E+01, -3.452057901762145E+00, -1.715740601605917E-01,  4.541031695946428E+03,  1.361367053983688E+09, -2.615850243673392E+01,
2460875.583333333, A.D. 2025-Jul-19 02:00:00.0000,  1.359662703382127E+09,  3.670780149490967E+07, -5.507970705819871E+07, -2.609439821511492E+01, -3.470660617388816E+00, -1.715696200526042E-01,  4.540717626566669E+03,  1.361272898352348E+09, -2.615017927703257E+01,
2460875.625000000, A.D. 2025-Jul-19 03:00:00.0000,  1.359568779429552E+09,  3.669527363915147E+07, -5.508032470070469E+07, -2.608557315422282E+01, -3.489258432475432E+00, -1.715650893783791E-01,  4.540403657219234E+03,  1.361178772709943E+09, -2.614184190906182E+01,
2460875.666666667, A.D. 2025-Jul-19 04:00:00.0000,  1.359474887271890E+09,  3.668267884006520E+07, -5.508094232672040E+07, -2.607673436577139E+01, -3.507851356182546E+00, -1.715604573130363E-01,  4.540089788075024E+03,  1.361084677107711E+09, -2.613349028436233E+01,
2460875.708333333, A.D. 2025-Jul-19 05:00:00.0000,  1.359381026958654E+09,  3.667001711525425E+07, -5.508155993586756E+07, -2.606788179715352E+01, -3.526439390178733E+00, -1.715557172471838E-01,  4.539776019305563E+03,  1.360990611597070E+09, -2.612512434791859E+01,
2460875.750000000, A.D. 2025-Jul-19 06:00:00.0000,  1.359287198539555E+09,  3.665728848233188E+07, -5.508217752775257E+07, -2.605901539140487E+01, -3.545022527175437E+00, -1.715508673499477E-01,  4.539462351083065E+03,  1.360896576229651E+09, -2.611674403992971E+01,
2460875.791666667, A.D. 2025-Jul-19 07:00:00.0000,  1.359193402064511E+09,  3.664449295895542E+07, -5.508279510198443E+07, -2.605013508956474E+01, -3.563600749784695E+00, -1.715459109246749E-01,  4.539148783580483E+03,  1.360802571057303E+09, -2.610834929812275E+01,
2460875.833333333, A.D. 2025-Jul-19 08:00:00.0000,  1.359099637583655E+09,  3.663163056286404E+07, -5.508341265819342E+07, -2.604124083343443E+01, -3.582174029875412E+00, -1.715408564820393E-01,  4.538835316971516E+03,  1.360708596132100E+09, -2.609994006048784E+01,
2460875.875000000, A.D. 2025-Jul-19 09:00:00.0000,  1.359005905147321E+09,  3.661870131191757E+07, -5.508403019604944E+07, -2.603233256853966E+01, -3.600742328580981E+00, -1.715357174722318E-01,  4.538521951430591E+03,  1.360614651506333E+09, -2.609151626824859E+01,
2460875.916666667, A.D. 2025-Jul-19 10:00:00.0000,  1.358912204806030E+09,  3.660570522413416E+07, -5.508464771527889E+07, -2.602341024705697E+01, -3.619305597061036E+00, -1.715305116465948E-01,  4.538208687132807E+03,  1.360520737232497E+09, -2.608307786883176E+01,
2460875.958333333, A.D. 2025-Jul-19 11:00:00.0000,  1.358818536610457E+09,  3.659264231772348E+07, -5.508526521567831E+07, -2.601447383044178E+01, -3.637863778046249E+00, -1.715252600573844E-01,  4.537895524253846E+03,  1.360426853363259E+09, -2.607462481857470E+01,
2460876.000000000, A.D. 2025-Jul-19 12:00:00.0000,  1.358724900611398E+09,  3.657951261111321E+07, -5.508588269712405E+07, -2.600552329150043E+01, -3.656416808103526E+00, -1.715199857491068E-01,  4.537582462969847E+03,  1.360332999951424E+09, -2.606615708490923E+01,
2460876.041666667, A.D. 2025-Jul-19 13:00:00.0000,  1.358631296859723E+09,  3.656631612296638E+07, -5.508650015957670E+07, -2.599655861568233E+01, -3.674964620458739E+00, -1.715147122412717E-01,  4.537269503457264E+03,  1.360239177049892E+09, -2.605767464778981E+01,
2460876.083333333, A.D. 2025-Jul-19 14:00:00.0000,  1.358537725406332E+09,  3.655305287218767E+07, -5.508711760308014E+07, -2.598757980143010E+01, -3.693507148117309E+00, -1.715094619449045E-01,  4.536956645892717E+03,  1.360145384711613E+09, -2.604917750019154E+01,
2460876.125000000, A.D. 2025-Jul-19 15:00:00.0000,  1.358444186302107E+09,  3.653972287791876E+07, -5.508773502775452E+07, -2.597858685951363E+01, -3.712044326944311E+00, -1.715042546862466E-01,  4.536643890452834E+03,  1.360051622989538E+09, -2.604066564758759E+01,
2460876.166666667, A.D. 2025-Jul-19 16:00:00.0000,  1.358350679597871E+09,  3.652632615952292E+07, -5.508835243378498E+07, -2.596957981138477E+01, -3.730576098322982E+00, -1.714991065228053E-01,  4.536331237314107E+03,  1.359957891936577E+09, -2.603213910642517E+01,
2460876.208333333, A.D. 2025-Jul-19 17:00:00.0000,  1.358257205344357E+09,  3.651286273656157E+07, -5.508896982140644E+07, -2.596055868671607E+01, -3.749102411024234E+00, -1.714940290192541E-01,  4.536018686652777E+03,  1.359864191605568E+09, -2.602359790174659E+01,
2460876.250000000, A.D. 2025-Jul-19 18:00:00.0000,  1.358163763592177E+09,  3.649933262876590E+07, -5.508958719088717E+07, -2.595152352042361E+01, -3.767623222013474E+00, -1.714890290929945E-01,  4.535706238644751E+03,  1.359770522049244E+09, -2.601504206424323E+01,
2460876.291666667, A.D. 2025-Jul-19 19:00:00.0000,  1.358070354391815E+09,  3.648573585600761E+07, -5.509020454251238E+07, -2.594247434960996E+01, -3.786138496120924E+00, -1.714841094292363E-01,  4.535393893465542E+03,  1.359676883320225E+09, -2.600647162717625E+01,
2460876.333333333, A.D. 2025-Jul-19 20:00:00.0000,  1.357976977793621E+09,  3.647207243827251E+07, -5.509082187657058E+07, -2.593341121098918E+01, -3.804648204837237E+00, -1.714792692896525E-01,  4.535081651290267E+03,  1.359583275471008E+09, -2.599788662373924E+01,
2460876.375000000, A.D. 2025-Jul-19 21:00:00.0000,  1.357883633847815E+09,  3.645834239563923E+07, -5.509143919334273E+07, -2.592433413945635E+01, -3.823152324999302E+00, -1.714745052825393E-01,  4.534769512293654E+03,  1.359489698553976E+09, -2.598928708556278E+01,
2460876.416666667, A.D. 2025-Jul-19 22:00:00.0000,  1.357790322604496E+09,  3.644454574826045E+07, -5.509205649309283E+07, -2.591524316852812E+01, -3.841650838836861E+00, -1.714698113099669E-01,  4.534457476650054E+03,  1.359396152621397E+09, -2.598067304315772E+01,
2460876.458333333, A.D. 2025-Jul-19 23:00:00.0000,  1.357697044113639E+09,  3.643068251633821E+07, -5.509267377605549E+07, -2.590613833338880E+01, -3.860143737796933E+00, -1.714651764410808E-01,  4.534145544533450E+03,  1.359302637725431E+09, -2.597204452914600E+01,
